{
  "type": "FeatureCollection",
  "features": [
    {
      "type": "Feature",
      "properties": {
        "norad_id": 30503,
        "name": "FENGYUN 1C DEB",
        "group": "fengyun-1c-debris",
        "lat": 29.814431541323916,
        "lon": 174.84356160168085,
        "alt_km": 837.3785140359541,
        "timestamp": "2025-12-02T23:34:15.793202+00:00",
        "meta_object_name": "FENGYUN 1C DEB",
        "meta_object_id": "1999-025AHR",
        "meta_epoch": "2025-12-02T05:05:04.194240",
        "meta_mean_motion": 14.16106124,
        "meta_eccentricity": 0.0008473,
        "meta_inclination": 99.2052,
        "meta_ra_of_asc_node": 179.3798,
        "meta_arg_of_pericenter": 298.6174,
        "meta_mean_anomaly": 126.9575,
        "meta_ephemeris_type": 0,
        "meta_classification_type": "U",
        "meta_norad_cat_id": 30503,
        "meta_element_set_no": 999,
        "meta_rev_at_epoch": 97197,
        "meta_bstar": 0.00036249,
        "meta_mean_motion_dot": 6.69e-06,
        "meta_mean_motion_ddot": 0,
        "tle_line1": "1 30503U 99025AHR 25336.21185410  .00000669  00000+0  36249-3 0  9994",
        "tle_line2": "2 30503  99.2052 179.3798 0008473 298.6174 126.9575 14.16106124971977"
      },
      "geometry": {
        "type": "Point",
        "coordinates": [
          174.84356160168085,
          29.814431541323916
        ]
      }
    },
    {
      "type": "Feature",
      "properties": {
        "norad_id": 30504,
        "name": "FENGYUN 1C DEB",
        "group": "fengyun-1c-debris",
        "lat": 80.96012666075747,
        "lon": -64.71457428335282,
        "alt_km": 888.8194457096106,
        "timestamp": "2025-12-02T23:34:15.793212+00:00",
        "meta_object_name": "FENGYUN 1C DEB",
        "meta_object_id": "1999-025AHS",
        "meta_epoch": "2025-12-01T01:38:19.716000",
        "meta_mean_motion": 14.2044549,
        "meta_eccentricity": 0.01115456,
        "meta_inclination": 99.0269,
        "meta_ra_of_asc_node": 21.008,
        "meta_arg_of_pericenter": 249.7531,
        "meta_mean_anomaly": 139.2488,
        "meta_ephemeris_type": 0,
        "meta_classification_type": "U",
        "meta_norad_cat_id": 30504,
        "meta_element_set_no": 999,
        "meta_rev_at_epoch": 97228,
        "meta_bstar": 0.00044565383,
        "meta_mean_motion_dot": 9.7e-06,
        "meta_mean_motion_ddot": 0,
        "tle_line1": "1 30504U 99025AHS 25335.06828375  .00000970  00000+0  44565-3 0  9996",
        "tle_line2": "2 30504  99.0269  21.0080 0111545 249.7531 139.2488 14.20445490972284"
      },
      "geometry": {
        "type": "Point",
        "coordinates": [
          -64.71457428335282,
          80.96012666075747
        ]
      }
    },
    {
      "type": "Feature",
      "properties": {
        "norad_id": 30505,
        "name": "FENGYUN 1C DEB",
        "group": "fengyun-1c-debris",
        "lat": -60.88151567894969,
        "lon": 72.91464470380963,
        "alt_km": 786.0621586052303,
        "timestamp": "2025-12-02T23:34:15.793223+00:00",
        "meta_object_name": "FENGYUN 1C DEB",
        "meta_object_id": "1999-025AHT",
        "meta_epoch": "2025-12-01T18:03:07.462080",
        "meta_mean_motion": 14.21902111,
        "meta_eccentricity": 0.00627228,
        "meta_inclination": 98.9269,
        "meta_ra_of_asc_node": 55.2802,
        "meta_arg_of_pericenter": 273.487,
        "meta_mean_anomaly": 211.6115,
        "meta_ephemeris_type": 0,
        "meta_classification_type": "U",
        "meta_norad_cat_id": 30505,
        "meta_element_set_no": 999,
        "meta_rev_at_epoch": 96767,
        "meta_bstar": 0.0017834286,
        "meta_mean_motion_dot": 3.968e-05,
        "meta_mean_motion_ddot": 0,
        "tle_line1": "1 30505U 99025AHT 25335.75216970  .00003968  00000+0  17834-2 0  9993",
        "tle_line2": "2 30505  98.9269  55.2802 0062722 273.4870 211.6115 14.21902111967674"
      },
      "geometry": {
        "type": "Point",
        "coordinates": [
          72.91464470380963,
          -60.88151567894969
        ]
      }
    },
    {
      "type": "Feature",
      "properties": {
        "norad_id": 30506,
        "name": "FENGYUN 1C DEB",
        "group": "fengyun-1c-debris",
        "lat": 72.6202103175471,
        "lon": -47.16513634022577,
        "alt_km": 830.7131601334377,
        "timestamp": "2025-12-02T23:34:15.793233+00:00",
        "meta_object_name": "FENGYUN 1C DEB",
        "meta_object_id": "1999-025AHU",
        "meta_epoch": "2025-12-02T12:00:48.001248",
        "meta_mean_motion": 14.08631378,
        "meta_eccentricity": 0.0070781,
        "meta_inclination": 98.7571,
        "meta_ra_of_asc_node": 341.87,
        "meta_arg_of_pericenter": 16.8777,
        "meta_mean_anomaly": 136.6589,
        "meta_ephemeris_type": 0,
        "meta_classification_type": "U",
        "meta_norad_cat_id": 30506,
        "meta_element_set_no": 999,
        "meta_rev_at_epoch": 96677,
        "meta_bstar": 0.00040253,
        "meta_mean_motion_dot": 6.66e-06,
        "meta_mean_motion_ddot": 0,
        "tle_line1": "1 30506U 99025AHU 25336.50055557  .00000666  00000+0  40253-3 0  9994",
        "tle_line2": "2 30506  98.7571 341.8700 0070781  16.8777 136.6589 14.08631378966779"
      },
      "geometry": {
        "type": "Point",
        "coordinates": [
          -47.16513634022577,
          72.6202103175471
        ]
      }
    },
    {
      "type": "Feature",
      "properties": {
        "norad_id": 30507,
        "name": "FENGYUN 1C DEB",
        "group": "fengyun-1c-debris",
        "lat": 31.98140161602177,
        "lon": 35.70613870871367,
        "alt_km": 938.3552340741153,
        "timestamp": "2025-12-02T23:34:15.793244+00:00",
        "meta_object_name": "FENGYUN 1C DEB",
        "meta_object_id": "1999-025AHV",
        "meta_epoch": "2025-11-30T22:58:02.867232",
        "meta_mean_motion": 14.13085215,
        "meta_eccentricity": 0.01281493,
        "meta_inclination": 99.0144,
        "meta_ra_of_asc_node": 39.3554,
        "meta_arg_of_pericenter": 209.3423,
        "meta_mean_anomaly": 326.9345,
        "meta_ephemeris_type": 0,
        "meta_classification_type": "U",
        "meta_norad_cat_id": 30507,
        "meta_element_set_no": 999,
        "meta_rev_at_epoch": 96331,
        "meta_bstar": 0.0013402973,
        "meta_mean_motion_dot": 2.662e-05,
        "meta_mean_motion_ddot": 0,
        "tle_line1": "1 30507U 99025AHV 25334.95697763  .00002662  00000+0  13403-2 0  9997",
        "tle_line2": "2 30507  99.0144  39.3554 0128149 209.3423 326.9345 14.13085215963315"
      },
      "geometry": {
        "type": "Point",
        "coordinates": [
          35.70613870871367,
          31.98140161602177
        ]
      }
    },
    {
      "type": "Feature",
      "properties": {
        "norad_id": 30509,
        "name": "FENGYUN 1C DEB",
        "group": "fengyun-1c-debris",
        "lat": 39.06305567984923,
        "lon": -157.5100487834387,
        "alt_km": 818.6723459188861,
        "timestamp": "2025-12-02T23:34:15.793254+00:00",
        "meta_object_name": "FENGYUN 1C DEB",
        "meta_object_id": "1999-025AHX",
        "meta_epoch": "2025-12-02T03:37:21.523584",
        "meta_mean_motion": 14.0754091,
        "meta_eccentricity": 0.0100784,
        "meta_inclination": 98.4657,
        "meta_ra_of_asc_node": 208.6534,
        "meta_arg_of_pericenter": 93.3445,
        "meta_mean_anomaly": 57.8388,
        "meta_ephemeris_type": 0,
        "meta_classification_type": "U",
        "meta_norad_cat_id": 30509,
        "meta_element_set_no": 999,
        "meta_rev_at_epoch": 95573,
        "meta_bstar": 0.0020400223,
        "meta_mean_motion_dot": 3.565e-05,
        "meta_mean_motion_ddot": 0,
        "tle_line1": "1 30509U 99025AHX 25336.15094356  .00003565  00000+0  20400-2 0  9990",
        "tle_line2": "2 30509  98.4657 208.6534 0100784  93.3445  57.8388 14.07540910955733"
      },
      "geometry": {
        "type": "Point",
        "coordinates": [
          -157.5100487834387,
          39.06305567984923
        ]
      }
    },
    {
      "type": "Feature",
      "properties": {
        "norad_id": 30510,
        "name": "FENGYUN 1C DEB",
        "group": "fengyun-1c-debris",
        "lat": -80.54737321608329,
        "lon": 90.64995644999362,
        "alt_km": 841.7024254826692,
        "timestamp": "2025-12-02T23:34:15.793265+00:00",
        "meta_object_name": "FENGYUN 1C DEB",
        "meta_object_id": "1999-025AHY",
        "meta_epoch": "2025-12-02T00:20:34.490976",
        "meta_mean_motion": 14.1276576,
        "meta_eccentricity": 0.00785778,
        "meta_inclination": 99.2456,
        "meta_ra_of_asc_node": 347.7011,
        "meta_arg_of_pericenter": 196.1697,
        "meta_mean_anomaly": 191.3235,
        "meta_ephemeris_type": 0,
        "meta_classification_type": "U",
        "meta_norad_cat_id": 30510,
        "meta_element_set_no": 999,
        "meta_rev_at_epoch": 96423,
        "meta_bstar": 0.0014406909,
        "meta_mean_motion_dot": 2.708e-05,
        "meta_mean_motion_ddot": 0,
        "tle_line1": "1 30510U 99025AHY 25336.01428809  .00002708  00000+0  14407-2 0  9999",
        "tle_line2": "2 30510  99.2456 347.7011 0078577 196.1697 191.3235 14.12765760964239"
      },
      "geometry": {
        "type": "Point",
        "coordinates": [
          90.64995644999362,
          -80.54737321608329
        ]
      }
    }
  ]
}